TIANMU-1 08             
1 57400U 23101B   26066.00237819  .00000346  00000+0  14775-4 0  9993
2 57400  97.2717 118.7901 0006380 134.2174 225.9592 15.29204229146020
STARLINK-31654          
1 59858U 24098A   26068.89634882  .00001353  00000+0  58678-4 0  9997
2 59858  43.0009 269.4004 0000960 275.2408  84.8334 15.27576821101951
