[{"OBJECT_NAME":"TIANMU-1 08","OBJECT_ID":"2023-101B","EPOCH":"2026-03-07T00:03:25.475616","MEAN_MOTION":15.29204229,"ECCENTRICITY":0.00063808,"INCLINATION":97.2717,"RA_OF_ASC_NODE":118.7901,"ARG_OF_PERICENTER":134.2174,"MEAN_ANOMALY":225.9592,"EPHEMERIS_TYPE":0,"CLASSIFICATION_TYPE":"U","NORAD_CAT_ID":57400,"ELEMENT_SET_NO":999,"REV_AT_EPOCH":14602,"BSTAR":1.4774513e-5,"MEAN_MOTION_DOT":3.46e-6,"MEAN_MOTION_DDOT":0},{"OBJECT_NAME":"STARLINK-31654","OBJECT_ID":"2024-098A","EPOCH":"2026-03-09T21:30:44.538912","MEAN_MOTION":15.27576821,"ECCENTRICITY":9.601e-5,"INCLINATION":43.0009,"RA_OF_ASC_NODE":269.4004,"ARG_OF_PERICENTER":275.2408,"MEAN_ANOMALY":84.8334,"EPHEMERIS_TYPE":0,"CLASSIFICATION_TYPE":"U","NORAD_CAT_ID":59858,"ELEMENT_SET_NO":999,"REV_AT_EPOCH":10195,"BSTAR":5.8677594e-5,"MEAN_MOTION_DOT":1.353e-5,"MEAN_MOTION_DDOT":0}]
